KUIPER-00079            
1 64826U 25151L   25221.47273290 -.00149525  00000+0 -43628-2 0  9998
2 64826  51.8783 170.8492 0006552 220.1505 139.8997 15.35328051  4917
KUIPER-00080            
1 64827U 25151M   25221.47688897  .00039574  00000+0  11209-2 0  9992
2 64827  51.8785 170.8804 0006076 226.6804 133.3676 15.35870560  3718
KUIPER-00082            
1 64828U 25151N   25222.12589117  .00031742  00000+0  89890-3 0  9992
2 64828  51.8786 167.7246 0005269 225.3570 134.6987 15.35987320  3817
KUIPER-00083            
1 64829U 25151P   25222.13209172  .00197624  00000+0  53979-2 0  9994
2 64829  51.8787 167.7642 0008743 229.4266 130.5960 15.36094788  5003
KUIPER-00084            
1 64830U 25151Q   25222.16668981 -.01182695  00000+0 -51147-1 0  9995
2 64830  51.8848 168.1354 0005866 233.0634  42.4086 15.24714598  3802
KUIPER-00085            
1 64831U 25151R   25221.99367877  .00039360  00000+0  11075-2 0  9990
2 64831  51.8787 168.3410 0005950 215.5270 144.5320 15.36080492  3790
KUIPER-00086            
1 64832U 25151S   25222.13443026  .00030574  00000+0  88215-3 0  9998
2 64832  51.8779 167.7796 0005363 244.1194 115.9239 15.35420816  3803
KUIPER-00087            
1 64833U 25151T   25222.12745347  .00038971  00000+0  11051-2 0  9991
2 64833  51.8787 167.7389 0005180 221.9930 138.0660 15.35845784  3819
